[{"OBJECT_NAME":"STARLINK-5428","OBJECT_ID":"2022-175AU","EPOCH":"2026-03-09T07:13:37.041024","MEAN_MOTION":15.08841997,"ECCENTRICITY":0.00014685,"INCLINATION":53.2185,"RA_OF_ASC_NODE":35.6382,"ARG_OF_PERICENTER":95.1963,"MEAN_ANOMALY":264.9197,"EPHEMERIS_TYPE":0,"CLASSIFICATION_TYPE":"U","NORAD_CAT_ID":54800,"ELEMENT_SET_NO":999,"REV_AT_EPOCH":18000,"BSTAR":0.0001915204,"MEAN_MOTION_DOT":2.762e-5,"MEAN_MOTION_DDOT":0},{"OBJECT_NAME":"OBJECT J","OBJECT_ID":"2024-205J","EPOCH":"2026-03-09T23:28:57.561600","MEAN_MOTION":15.10710806,"ECCENTRICITY":0.00148701,"INCLINATION":97.4211,"RA_OF_ASC_NODE":142.3026,"ARG_OF_PERICENTER":147.8528,"MEAN_ANOMALY":212.3612,"EPHEMERIS_TYPE":0,"CLASSIFICATION_TYPE":"U","NORAD_CAT_ID":61902,"ELEMENT_SET_NO":999,"REV_AT_EPOCH":7320,"BSTAR":0.00056466438,"MEAN_MOTION_DOT":9.322e-5,"MEAN_MOTION_DDOT":0}]
